0 MIDAS 5 DEB
1 00274U 62010D   13280.99241548  .00000004  00000-0 -18707-3 0  3904
2 00274 086.6503 284.3400 0360281 073.0124 290.9927 09.39358381765949
0 MIDAS 5 DEB
1 00274U 62010D   13283.03187509  .00000046  00000-0  81568-2 0  3918
2 00274 086.6476 284.0434 0360245 070.5599 347.7734 09.39358145766137
0 MIDAS 5 DEB
1 00274U 62010D   13286.00547779  .00000008  00000-0  63431-3 0  3926
2 00274 086.6475 283.6109 0360306 066.9165 323.5822 09.39358673766413
0 MIDAS 5 DEB
1 00274U 62010D   13288.49137490 -.00000030  00000-0 -70952-2 0  3939
2 00274 086.6478 283.2490 0360395 063.8713 090.1228 09.39358830766645
0 MIDAS 5 DEB
1 00274U 62010D   13291.01835760  .00000012  00000-0  13292-2 0  3949
2 00274 086.6483 282.8809 0360524 060.7872 355.5973 09.39358502766883
0 MIDAS 5 DEB
1 00274U 62010D   13294.00109602  .00000023  00000-0  36208-2 0  3955
2 00274 086.6488 282.4468 0360477 057.1472 002.2887 09.39358122767168
